{
    "type": "FeatureCollection",
    "features": [
        {
            "type": "Feature",
            "properties": {},
            "geometry": {
                "type": "Polygon",
                "coordinates": [
                    [
                        [
                            8.559411,
                            36.512224
                        ],
                        [
                            8.558896,
                            36.511379
                        ],
                        [
                            8.558681,
                            36.511776
                        ],
                        [
                            8.558037,
                            36.511604
                        ],
                        [
                            8.557222,
                            36.511914
                        ],
                        [
                            8.556085,
                            36.510793
                        ],
                        [
                            8.556192,
                            36.510414
                        ],
                        [
                            8.555527,
                            36.509465
                        ],
                        [
                            8.557201,
                            36.507171
                        ],
                        [
                            8.560569,
                            36.504153
                        ],
                        [
                            8.561406,
                            36.504015
                        ],
                        [
                            8.564196,
                            36.504722
                        ],
                        [
                            8.56426,
                            36.50555
                        ],
                        [
                            8.566191,
                            36.505688
                        ],
                        [
                            8.567479,
                            36.507533
                        ],
                        [
                            8.567028,
                            36.510759
                        ],
                        [
                            8.566556,
                            36.510931
                        ],
                        [
                            8.563895,
                            36.510707
                        ],
                        [
                            8.561771,
                            36.511259
                        ],
                        [
                            8.559411,
                            36.512224
                        ]
                    ]
                ]
            }
        }
    ]
}